[{"OBJECT_NAME":"STARLINK-4395","OBJECT_ID":"2022-084L","EPOCH":"2026-03-09T17:25:46.160544","MEAN_MOTION":15.05715066,"ECCENTRICITY":0.00013965,"INCLINATION":97.6045,"RA_OF_ASC_NODE":131.2451,"ARG_OF_PERICENTER":58.4465,"MEAN_ANOMALY":301.6898,"EPHEMERIS_TYPE":0,"CLASSIFICATION_TYPE":"U","NORAD_CAT_ID":53199,"ELEMENT_SET_NO":999,"REV_AT_EPOCH":19938,"BSTAR":-0.0012973879,"MEAN_MOTION_DOT":-0.00018764,"MEAN_MOTION_DDOT":0},{"OBJECT_NAME":"IRIDIUM 33 DEB","OBJECT_ID":"1997-051ABJ","EPOCH":"2026-03-07T11:02:11.153184","MEAN_MOTION":15.04355632,"ECCENTRICITY":0.00105712,"INCLINATION":86.348,"RA_OF_ASC_NODE":321.5871,"ARG_OF_PERICENTER":86.7515,"MEAN_ANOMALY":38.318,"EPHEMERIS_TYPE":0,"CLASSIFICATION_TYPE":"U","NORAD_CAT_ID":40996,"ELEMENT_SET_NO":999,"REV_AT_EPOCH":63758,"BSTAR":0.0045408492,"MEAN_MOTION_DOT":0.00063892,"MEAN_MOTION_DDOT":0}]
